GSAT0216 (GALILEO 20)
1 43056U 17079B   25350.88008698  .00000053  00000+0  00000+0 0  9990
2 43056  55.1290 226.5236 0002419 322.2527  37.8290  1.70474167 49893